BEIDOU-2 IGSO-1 (C06)   
1 36828U 10036A   26032.29768681 -.00000150  00000+0  00000+0 0  9992
2 36828  54.2928 164.1909 0052996 217.3689 324.0807  1.00261048 56733
BEIDOU-2 G4 (C04)       
1 37210U 10057A   26032.52229847 -.00000124  00000+0  00000+0 0  9994
2 37210   3.3091  69.7198 0010199 204.2012 205.7388  1.00269275 55939
BEIDOU-2 IGSO-2 (C07)   
1 37256U 10068A   26031.58501471 -.00000166  00000+0  00000+0 0  9993
2 37256  47.7909 273.5265 0047629 214.0538 322.0759  1.00269113 55429
BEIDOU-2 IGSO-3 (C08)   
1 37384U 11013A   26031.71987549 -.00000147  00000+0  00000+0 0  9994
2 37384  62.2151  41.4373 0032945 190.1608 263.8989  1.00257905 54298
BEIDOU-2 IGSO-4 (C09)   
1 37763U 11038A   26023.87641058  .00000007  00000+0  00000+0 0  9996
2 37763  54.5902 166.9718 0151514 230.3527 136.4289  1.00273505 53206
BEIDOU-2 IGSO-5 (C10)   
1 37948U 11073A   26028.66774690 -.00000113  00000+0  00000+0 0  9990
2 37948  47.9306 273.2746 0108706 221.5041 328.4434  1.00280002 51737
BEIDOU-2 G5 (C05)       
1 38091U 12008A   26032.43095132  .00000047  00000+0  00000+0 0  9991
2 38091   3.2343  70.4859 0014326 241.4293  33.5272  1.00271970 51007
BEIDOU-2 M3 (C11)       
1 38250U 12018A   26030.72747042 -.00000068  00000+0  00000+0 0  9997
2 38250  55.8763 309.5104 0022866 278.1374  81.6365  1.86229811 93382
BEIDOU-2 M4 (C12)       
1 38251U 12018B   26030.65958568 -.00000066  00000+0  00000+0 0  9995
2 38251  55.7772 308.7376 0014053 283.9774  75.9006  1.86229522 93388
BEIDOU-2 M6 (C14)       
1 38775U 12050B   26031.98099615 -.00000019  00000+0  00000+0 0  9996
2 38775  56.4228  67.3990 0012987 340.5188  19.5038  1.86230830 90779
BEIDOU-2 G6 (C02)       
1 38953U 12059A   26032.50730506 -.00000186  00000+0  00000+0 0  9998
2 38953   4.0773  74.9891 0009259 295.0656  28.2001  1.00274562 48548
BEIDOU-3S IGSO-1S (C31) 
1 40549U 15019A   26027.57969539 -.00000180  00000+0  00000+0 0  9996
2 40549  49.4603 297.1615 0035946 192.2184 302.2696  1.00282180 39669
BEIDOU-3S M2S (C58)     
1 40748U 15037A   26031.93806707 -.00000064  00000+0  00000+0 0  9990
2 40748  54.9920 306.7392 0010205 276.5881  83.3374  1.86231800 71587
BEIDOU-3S M1S (C57)     
1 40749U 15037B   26028.94068755 -.00000064  00000+0  00000+0 0  9991
2 40749  54.9909 306.8311 0004162  15.5617 344.4842  1.86253913 71535
BEIDOU-3S IGSO-2S (C56) 
1 40938U 15053A   26027.67705003 -.00000079  00000+0  00000+0 0  9998
2 40938  49.4373 260.4556 0061515 187.1638  17.4903  1.00254296 37942
BEIDOU-2 IGSO-6 (C13)   
1 41434U 16021A   26031.73628635 -.00000131  00000+0  00000+0 0  9992
2 41434  60.0385  39.3935 0060537 232.6565 219.1230  1.00283772 36111
BEIDOU-2 G7 (C03)       
1 41586U 16037A   26032.51250509 -.00000364  00000+0  00000+0 0  9993
2 41586   1.8803  68.2625 0005688   1.9226 356.5665  1.00271889  5526
BEIDOU-3 M1 (C19)       
1 43001U 17069A   26031.74646072 -.00000019  00000+0  00000+0 0  9998
2 43001  56.5708  67.5801 0011448 305.8339  54.1320  1.86230837 56067
BEIDOU-3 M2 (C20)       
1 43002U 17069B   26032.22185279 -.00000019  00000+0  00000+0 0  9990
2 43002  56.5702  67.6008 0008752 326.0895  33.9268  1.86230742 56069
BEIDOU-3 M7 (C27)       
1 43107U 18003A   26031.96422230 -.00000065  00000+0  00000+0 0  9997
2 43107  54.4498 307.0674 0003930  67.1392 292.9431  1.86232146 54812
BEIDOU-3 M8 (C28)       
1 43108U 18003B   26031.90952858 -.00000065  00000+0  00000+0 0  9996
2 43108  54.4425 307.0519 0003770 287.2125  72.7871  1.86230659 54822
BEIDOU-3 M4 (C22)       
1 43207U 18018A   26032.35167344 -.00000019  00000+0  00000+0 0  9999
2 43207  56.5303  67.6287 0005739 351.1010   8.9610  1.86230767 54217
BEIDOU-3 M3 (C21)       
1 43208U 18018B   26032.41813913 -.00000020  00000+0  00000+0 0  9999
2 43208  56.5299  67.6305 0008918 316.2284  43.7730  1.86230914 54214
BEIDOU-3 M9 (C29)       
1 43245U 18029A   26032.09794047 -.00000061  00000+0  00000+0 0  9997
2 43245  54.3174 304.7097 0000947 338.1997  21.8415  1.86227933 53363
BEIDOU-3 M10 (C30)      
1 43246U 18029B   26032.03296329 -.00000061  00000+0  00000+0 0  9992
2 43246  54.3150 304.7400 0004854  15.6027 344.4572  1.86228846 53348
BEIDOU-2 IGSO-7 (C16)   
1 43539U 18057A   26030.88429465 -.00000148  00000+0  00000+0 0  9994
2 43539  55.1871 164.2597 0098258 236.2111 158.7845  1.00292664 27754
BEIDOU-3 M5 (C23)       
1 43581U 18062A   26031.72024141  .00000021  00000+0  00000+0 0  9992
2 43581  54.0901 186.9429 0001633 338.5059  21.4376  1.86228244 51092
BEIDOU-3 M6 (C24)       
1 43582U 18062B   26029.97222799  .00000047  00000+0  00000+0 0  9994
2 43582  54.0917 186.9908 0007224  49.2495 310.7754  1.86229188 51063
BEIDOU-3 M12 (C26)      
1 43602U 18067A   26030.98445791  .00000028  00000+0  00000+0 0  9993
2 43602  54.1844 185.6922 0008944  41.7923 318.2294  1.86227561 50560
BEIDOU-3 M11 (C25)      
1 43603U 18067B   26031.65606340  .00000020  00000+0  00000+0 0  9990
2 43603  54.1817 185.6332 0005359  37.9665 322.0207  1.86227003 50606
BEIDOU-3 M13 (C32)      
1 43622U 18072A   26032.14927962 -.00000019  00000+0  00000+0 0  9997
2 43622  56.5035  67.1504 0007971 302.7096  57.2853  1.86230778 50127
BEIDOU-3 M14 (C33)      
1 43623U 18072B   26032.01474431 -.00000019  00000+0  00000+0 0  9992
2 43623  56.5051  67.1488 0005397 324.7118  35.3244  1.86230745 50110
BEIDOU-3 M16 (C35)      
1 43647U 18078A   26032.17193269 -.00000061  00000+0  00000+0 0  9995
2 43647  54.2134 304.7565 0008156  26.2452 333.8414  1.86232210 49628
BEIDOU-3 M15 (C34)      
1 43648U 18078B   26029.07949881 -.00000060  00000+0  00000+0 0  9999
2 43648  54.2121 304.8656 0004883  30.1488 329.9156  1.86231974 49583
BEIDOU-3 G1 (C59)       
1 43683U 18085A   26032.68678924 -.00000289  00000+0  00000+0 0  9997
2 43683   2.7343 101.3135 0001216  52.2867   5.5726  1.00272794 26701
BEIDOU-3 M17 (C36)      
1 43706U 18093A   26032.46973725  .00000016  00000+0  00000+0 0  9992
2 43706  54.1737 186.8994 0006231 302.7049  63.5349  1.86228293 49016
BEIDOU-3 M18 (C37)      
1 43707U 18093B   26032.32228523  .00000016  00000+0  00000+0 0  9997
2 43707  54.1743 186.8966 0005908 349.9083  10.0272  1.86226434 49000
BEIDOU-2 G8 (C01)       
1 44231U 19027A   26032.51926512 -.00000258  00000+0  00000+0 0  9991
2 44231   1.7891  74.7829 0009197 262.1310 126.2542  1.00270123 24723
BEIDOU-3 IGSO-2 (C39)   
1 44337U 19035A   26031.85278855 -.00000166  00000+0  00000+0 0  9991
2 44337  55.2336 160.0615 0038182 204.7375 190.8847  1.00255117 24304
BEIDOU-3 M24 (C46)      
1 44542U 19061A   26029.70791521  .00000053  00000+0  00000+0 0  9993
2 44542  54.4015 187.3973 0009179  26.0992 333.9117  1.86228858 43217
BEIDOU-3 M23 (C45)      
1 44543U 19061B   26030.63819267  .00000036  00000+0  00000+0 0  9997
2 44543  54.4001 187.3342 0005563  23.7219 152.4453  1.86227081 43238
BEIDOU-3 M22 (C44)      
1 44793U 19078A   26029.01068938 -.00000060  00000+0  00000+0 0  9991
2 44793  54.0631 304.7270 0006785  29.9167 330.1584  1.86231886 42059
BEIDOU-3 M21 (C43)      
1 44794U 19078B   26031.83426799 -.00000060  00000+0  00000+0 0  9998
2 44794  54.0333 304.5914 0004966  24.3367 335.7313  1.86227479 42113
BEIDOU-3 M19 (C41)      
1 44864U 19090A   26032.13834997 -.00000020  00000+0  00000+0 0  9993
2 44864  56.4377  67.2887 0019866 288.7058 111.4361  1.86231174 41708
BEIDOU-3 M20 (C42)      
1 44865U 19090B   26030.35367367 -.00000021  00000+0  00000+0 0  9999
2 44865  56.4373  67.3824 0016994 300.1050  73.1179  1.86231102 41653
BEIDOU-3 G2 (C60)       
1 45344U 20017A   26032.43511134 -.00000150  00000+0  00000+0 0  9990
2 45344   2.5930  44.9704 0002639 268.6409  54.6748  1.00271881 21896
BEIDOU-3 G3 (C61)       
1 45807U 20040A   26032.29855347 -.00000364  00000+0  00000+0 0  9998
2 45807   2.1130  66.9716 0004718 306.5530 336.0038  1.00268904 20702
BEIDOU-3 G4 (C62)       
1 56564U 23066A   26026.39408094 -.00000100  00000+0  00000+0 0  9996
2 56564   0.7213 306.1415 0001516 216.8774 264.4347  1.00269231  9978
BEIDOU-3 M28 (C50)      
1 58654U 23207A   26031.91207485 -.00000022  00000+0  00000+0 0  9993
2 58654  55.6297  66.9016 0004323 291.9514  68.0736  1.86229613 14301
BEIDOU-3 M26 (C48)      
1 58655U 23207B   26032.24649082 -.00000023  00000+0  00000+0 0  9995
2 58655  55.6320  66.8765 0005337 277.7618  82.2485  1.86229503 14297
BEIDOU-3 M25 (C47)      
1 61186U 24168B   26032.23259645 -.00000065  00000+0  00000+0 0  9992
2 61186  54.5945 306.9684 0004814 311.0626 156.5331  1.86229856  9255
BEIDOU-3 M27 (C49)      
1 61187U 24168C   26032.11403138 -.00000065  00000+0  00000+0 0  9998
2 61187  54.5900 306.9561 0002784   4.4700 158.6058  1.86230010  6723
